1 42761U 17034D   21195.94011343  .00000433  00000-0  39241-4 0  9991
2 42761  43.0181  28.9969 0010089 332.9236 171.8316 15.10352696225305